#aV2009  6 29  0  0   .00000000      96 DD+AD WGS84 FIT  NGA
## 1538  86400.00000000   900.00000000 55011  .0000000000000
+   31     1  2  3  4  6  7  8  9 10 11 12 13 14 15 16 17 18
+         19 20 21 22 23 24 25 26 27 28 29 30 31 32  0  0  0
+          0  0  0  0  0  0  0  0  0  0  0  0  0  0  0  0  0
+          0  0  0  0  0  0  0  0  0  0  0  0  0  0  0  0  0
+          0  0  0  0  0  0  0  0  0  0  0  0  0  0  0  0  0
++         0  0  0  0  0  0  0  0  0  0  0  0  0  0  0  0  0
++         0  0  0  0  0  0  0  0  0  0  0  0  0  0  0  0  0
++         0  0  0  0  0  0  0  0  0  0  0  0  0  0  0  0  0
++         0  0  0  0  0  0  0  0  0  0  0  0  0  0  0  0  0
++         0  0  0  0  0  0  0  0  0  0  0  0  0  0  0  0  0
%c cc cc ccc ccc cccc cccc cccc cccc ccccc ccccc ccccc ccccc
%c cc cc ccc ccc cccc cccc cccc cccc ccccc ccccc ccccc ccccc
%f  0.0000000  0.000000000  0.00000000000  0.000000000000000
%f  0.0000000  0.000000000  0.00000000000  0.000000000000000
%i    0    0    0    0      0      0      0      0         0
%i    0    0    0    0      0      0      0      0         0
/*      NGA, ST. LOUIS,MO.                                  
/*   EPHEMERIS COMPUTED FROM  3 DAYS OF DATA                
/* CCCCCCCCCCCCCCCCCCCCCCCCCCCCCCCCCCCCCCCCCCCCCCCCCCCCCCCCC
/* CCCCCCCCCCCCCCCCCCCCCCCCCCCCCCCCCCCCCCCCCCCCCCCCCCCCCCCCC
*  2009  6 29  3  0   .00000000                                                 
P  1 -19919.679548  17257.258900   2713.586590    -71.384721                    
V  1    487.921507  -4555.271618  31589.579994       .045703                    
P  2 -13195.491661 -21196.384412  -9729.993942    157.938786                    
V  2   -590.111112 -12425.464542  27697.913531       .013842                    
P  3  23050.623429  10407.994911  -8992.521368    413.024246                    
V  3 -11301.580018   1478.852756 -27891.154224       .052629                    
P  4  -5983.696765 -25655.858355    769.401566   -152.755623                    
V  4   3961.723876    170.912109  31506.889750      -.161600                    
P  6  19623.653164  13361.129683 -11788.556210    176.575539                    
V  6 -15597.851995   -372.894984 -25894.656116       .121623                    
P  7   8991.021438 -16553.305184 -18695.016391     16.196923                    
V  7   7346.814690  22595.279426 -16617.859221      -.007263                    
P  8   1205.576994 -24694.011292  -9028.797524   -209.583500                    
V  8   4313.342885  10890.003252 -29856.539622      -.013016                    
P  9 -15356.260709  -2045.057652  20928.570354     63.700493                    
V  9  -7396.562858 -27087.943486  -7751.482486       .020061                    
P 10 -13628.353638  -7977.860792 -21555.210287    -18.237264                    
V 10  19414.215624 -18702.999605  -5063.602626      -.006001                    
P 11  17357.347090  -1501.394328  19900.216086     -8.443875                    
V 11  10817.167542  23666.602790  -7211.452319      -.016028                    
P 12 -21553.865611   8771.398014  12751.116656   -259.027702                    
V 12  10006.717690 -12830.555694  25992.558531       .060575                    
P 13  15517.680740  -8440.544358 -19968.817848    300.394931                    
V 13  23421.740215   8715.692908  14605.883192       .007956                    
P 14   2244.489492  15589.441000  21526.910945    -87.724936                    
V 14 -25821.602559  -7735.618961   8222.255129       .057072                    
P 15 -25609.447634  -7135.744419   -695.470739   -304.654678                    
V 15   1608.757610  -2593.528841 -31595.115939      -.028768                    
P 16   8824.340175  12243.328206 -21785.972817     37.655628                    
V 16 -20418.207483  18850.960702   2555.651940      -.035288                    
P 17  -1084.498890 -15906.349850  21342.275721     67.218323                    
V 17  25953.432695   7107.843469   6450.406681       .023164                    
P 18 -16037.081889  20276.320898   5361.350739    -44.278557                    
V 18  -7287.015675   1878.638676 -30581.574996       .031679                    
P 19  25517.705617   7646.486077   1907.958433     20.892072                    
V 19   1292.632698   3324.698107 -31383.903052      -.013246                    
P 20  21532.892905 -10667.573330  11143.973631     78.693558                    
V 20  -7834.917117  12435.496324  26779.132868      -.009890                    
P 21  -7740.086447  19028.596570 -16214.445464      5.705554                    
V 21  -7789.262999 -20161.964134 -20249.288346      -.021614                    
P 22  -6948.213131  21046.514774  14738.077161    196.546299                    
V 22 -15346.236065  10686.650174 -22818.983270      -.005824                    
P 23  24357.761299   -947.346504 -10942.519002    390.189501                    
V 23  12668.429535   5589.638992  27551.380505      -.000549                    
P 24 -14179.918886   6687.642887 -21330.993548    200.504233                    
V 24  -5893.594683 -26767.555328  -4194.587161       .029967                    
P 25  11930.625241  -9848.736747 -21273.599126    484.337184                    
V 25   9920.890538  25933.774193  -6153.682928       .180428                    
P 26 -20267.234195   4445.528634  16343.928912     64.310604                    
V 26 -20059.831348  -7857.818630 -21512.206135       .004006                    
P 27 -16673.831144  -8392.686578  19577.566407     61.398850                    
V 27  -6254.858351 -22546.058862 -15553.084959       .031596                    
P 28   9101.068633 -21109.678920  13455.859989    -25.717343                    
V 28  13557.937994  -9630.965663 -25396.865098      -.002340                    
P 29 -17448.551652   8047.698483 -18211.908054     34.628092                    
V 29 -21895.286536  -8300.518968  17250.848212       .035760                    
P 30 -19461.121514  17663.445564   3129.476399    157.119745                    
V 30    714.439237  -5401.337066  31295.806906       .027693                    
P 31   7219.217893  25461.895272   -757.203796    -63.069740                    
V 31  -2163.224365   1819.960073  32100.650684      -.005512                    
P 32  20263.829421  -1156.585506  17383.752457    240.044187                    
V 32 -15365.498787  15010.066649  19603.414942      -.058174                    
EOF
